{
  "type": "FeatureCollection",
  "features": [
    {
      "type": "Feature",
      "properties": {
        "norad_id": 66491,
        "name": "STARLINK-35663",
        "group": "last-30-days",
        "lat": 38.32699615024071,
        "lon": -152.4840181257184,
        "alt_km": 409.8329357479679,
        "timestamp": "2025-12-08T13:49:30.576333+00:00",
        "meta_object_name": "STARLINK-35663",
        "meta_object_id": "2025-263G",
        "meta_epoch": "2025-12-08T06:00:02.999808",
        "meta_mean_motion": 15.50505733,
        "meta_eccentricity": 0.00017015,
        "meta_inclination": 43.0004,
        "meta_ra_of_asc_node": 151.3937,
        "meta_arg_of_pericenter": 281.1374,
        "meta_mean_anomaly": 122.3678,
        "meta_ephemeris_type": 0,
        "meta_classification_type": "U",
        "meta_norad_cat_id": 66491,
        "meta_element_set_no": 999,
        "meta_rev_at_epoch": 491,
        "meta_bstar": 0.0019261105,
        "meta_mean_motion_dot": 0.00114016,
        "meta_mean_motion_ddot": 0,
        "tle_line1": "1 66491U 25263G   25342.25003472  .00114016  00000+0  19261-2 0  9996",
        "tle_line2": "2 66491  43.0004 151.3937 0001701 281.1374 122.3678 15.50505733  4910"
      },
      "geometry": {
        "type": "Point",
        "coordinates": [
          -152.4840181257184,
          38.32699615024071
        ]
      }
    },
    {
      "type": "Feature",
      "properties": {
        "norad_id": 66492,
        "name": "STARLINK-35673",
        "group": "last-30-days",
        "lat": 38.995646199972064,
        "lon": -150.1922114419753,
        "alt_km": 409.8493877252895,
        "timestamp": "2025-12-08T13:49:30.576343+00:00",
        "meta_object_name": "STARLINK-35673",
        "meta_object_id": "2025-263H",
        "meta_epoch": "2025-12-08T06:00:02.999808",
        "meta_mean_motion": 15.50505918,
        "meta_eccentricity": 0.0001746,
        "meta_inclination": 43.0005,
        "meta_ra_of_asc_node": 151.3888,
        "meta_arg_of_pericenter": 278.0629,
        "meta_mean_anomaly": 127.3622,
        "meta_ephemeris_type": 0,
        "meta_classification_type": "U",
        "meta_norad_cat_id": 66492,
        "meta_element_set_no": 999,
        "meta_rev_at_epoch": 491,
        "meta_bstar": 0.0015868624,
        "meta_mean_motion_dot": 0.00093629,
        "meta_mean_motion_ddot": 0,
        "tle_line1": "1 66492U 25263H   25342.25003472  .00093629  00000+0  15869-2 0  9993",
        "tle_line2": "2 66492  43.0005 151.3888 0001746 278.0629 127.3622 15.50505918  4913"
      },
      "geometry": {
        "type": "Point",
        "coordinates": [
          -150.1922114419753,
          38.995646199972064
        ]
      }
    },
    {
      "type": "Feature",
      "properties": {
        "norad_id": 66493,
        "name": "STARLINK-35597",
        "group": "last-30-days",
        "lat": 39.62427308836415,
        "lon": -147.83590019046358,
        "alt_km": 409.8231615495224,
        "timestamp": "2025-12-08T13:49:30.576356+00:00",
        "meta_object_name": "STARLINK-35597",
        "meta_object_id": "2025-263J",
        "meta_epoch": "2025-12-08T06:00:02.999808",
        "meta_mean_motion": 15.50570955,
        "meta_eccentricity": 0.00015402,
        "meta_inclination": 43.0006,
        "meta_ra_of_asc_node": 151.3832,
        "meta_arg_of_pericenter": 265.4776,
        "meta_mean_anomaly": 141.8582,
        "meta_ephemeris_type": 0,
        "meta_classification_type": "U",
        "meta_norad_cat_id": 66493,
        "meta_element_set_no": 999,
        "meta_rev_at_epoch": 491,
        "meta_bstar": -0.00072845466,
        "meta_mean_motion_dot": -0.00042831,
        "meta_mean_motion_ddot": 0,
        "tle_line1": "1 66493U 25263J   25342.25003472 -.00042831  00000+0 -72845-3 0  9993",
        "tle_line2": "2 66493  43.0006 151.3832 0001540 265.4776 141.8582 15.50570955  4918"
      },
      "geometry": {
        "type": "Point",
        "coordinates": [
          -147.83590019046358,
          39.62427308836415
        ]
      }
    },
    {
      "type": "Feature",
      "properties": {
        "norad_id": 66494,
        "name": "STARLINK-35689",
        "group": "last-30-days",
        "lat": 37.61376204253016,
        "lon": -154.73433986440168,
        "alt_km": 410.0215501394723,
        "timestamp": "2025-12-08T13:49:30.576366+00:00",
        "meta_object_name": "STARLINK-35689",
        "meta_object_id": "2025-263K",
        "meta_epoch": "2025-12-08T06:00:02.999808",
        "meta_mean_motion": 15.50563355,
        "meta_eccentricity": 0.00014748,
        "meta_inclination": 43.0003,
        "meta_ra_of_asc_node": 151.3987,
        "meta_arg_of_pericenter": 267.7982,
        "meta_mean_anomaly": 133.7816,
        "meta_ephemeris_type": 0,
        "meta_classification_type": "U",
        "meta_norad_cat_id": 66494,
        "meta_element_set_no": 999,
        "meta_rev_at_epoch": 491,
        "meta_bstar": -0.00035324451,
        "meta_mean_motion_dot": -0.00020997,
        "meta_mean_motion_ddot": 0,
        "tle_line1": "1 66494U 25263K   25342.25003472 -.00020997  00000+0 -35324-3 0  9994",
        "tle_line2": "2 66494  43.0003 151.3987 0001474 267.7982 133.7816 15.50563355  4913"
      },
      "geometry": {
        "type": "Point",
        "coordinates": [
          -154.73433986440168,
          37.61376204253016
        ]
      }
    },
    {
      "type": "Feature",
      "properties": {
        "norad_id": 66495,
        "name": "STARLINK-35832",
        "group": "last-30-days",
        "lat": 40.19615317558705,
        "lon": -145.47060978613538,
        "alt_km": 409.6108308348239,
        "timestamp": "2025-12-08T13:49:30.576378+00:00",
        "meta_object_name": "STARLINK-35832",
        "meta_object_id": "2025-263L",
        "meta_epoch": "2025-12-08T06:00:02.999808",
        "meta_mean_motion": 15.50503193,
        "meta_eccentricity": 0.00017015,
        "meta_inclination": 43.0005,
        "meta_ra_of_asc_node": 151.3792,
        "meta_arg_of_pericenter": 283.7632,
        "meta_mean_anomaly": 125.4949,
        "meta_ephemeris_type": 0,
        "meta_classification_type": "U",
        "meta_norad_cat_id": 66495,
        "meta_element_set_no": 999,
        "meta_rev_at_epoch": 491,
        "meta_bstar": 0.0017008348,
        "meta_mean_motion_dot": 0.00100457,
        "meta_mean_motion_ddot": 0,
        "tle_line1": "1 66495U 25263L   25342.25003472  .00100457  00000+0  17008-2 0  9991",
        "tle_line2": "2 66495  43.0005 151.3792 0001701 283.7632 125.4949 15.50503193  4912"
      },
      "geometry": {
        "type": "Point",
        "coordinates": [
          -145.47060978613538,
          40.19615317558705
        ]
      }
    },
    {
      "type": "Feature",
      "properties": {
        "norad_id": 66496,
        "name": "STARLINK-35909",
        "group": "last-30-days",
        "lat": 40.72758903500465,
        "lon": -143.02735112526094,
        "alt_km": 409.7958044578281,
        "timestamp": "2025-12-08T13:49:30.576388+00:00",
        "meta_object_name": "STARLINK-35909",
        "meta_object_id": "2025-263M",
        "meta_epoch": "2025-12-08T06:00:02.999808",
        "meta_mean_motion": 15.50580985,
        "meta_eccentricity": 0.00016902,
        "meta_inclination": 43.0006,
        "meta_ra_of_asc_node": 151.3735,
        "meta_arg_of_pericenter": 262.5513,
        "meta_mean_anomaly": 148.62,
        "meta_ephemeris_type": 0,
        "meta_classification_type": "U",
        "meta_norad_cat_id": 66496,
        "meta_element_set_no": 999,
        "meta_rev_at_epoch": 491,
        "meta_bstar": -0.0010889928,
        "meta_mean_motion_dot": -0.00063716,
        "meta_mean_motion_ddot": 0,
        "tle_line1": "1 66496U 25263M   25342.25003472 -.00063716  00000+0 -10890-2 0  9992",
        "tle_line2": "2 66496  43.0006 151.3735 0001690 262.5513 148.6200 15.50580985  4912"
      },
      "geometry": {
        "type": "Point",
        "coordinates": [
          -143.02735112526094,
          40.72758903500465
        ]
      }
    },
    {
      "type": "Feature",
      "properties": {
        "norad_id": 66497,
        "name": "STARLINK-35899",
        "group": "last-30-days",
        "lat": 41.19685632793227,
        "lon": -140.59755279357267,
        "alt_km": 409.5822704573093,
        "timestamp": "2025-12-08T13:49:30.576399+00:00",
        "meta_object_name": "STARLINK-35899",
        "meta_object_id": "2025-263N",
        "meta_epoch": "2025-12-08T06:00:02.999808",
        "meta_mean_motion": 15.50504325,
        "meta_eccentricity": 0.00017657,
        "meta_inclination": 43.0005,
        "meta_ra_of_asc_node": 151.3688,
        "meta_arg_of_pericenter": 281.5141,
        "meta_mean_anomaly": 131.5791,
        "meta_ephemeris_type": 0,
        "meta_classification_type": "U",
        "meta_norad_cat_id": 66497,
        "meta_element_set_no": 999,
        "meta_rev_at_epoch": 491,
        "meta_bstar": 0.0014580009,
        "meta_mean_motion_dot": 0.00085908,
        "meta_mean_motion_ddot": 0,
        "tle_line1": "1 66497U 25263N   25342.25003472  .00085908  00000+0  14580-2 0  9998",
        "tle_line2": "2 66497  43.0005 151.3688 0001765 281.5141 131.5791 15.50504325  4910"
      },
      "geometry": {
        "type": "Point",
        "coordinates": [
          -140.59755279357267,
          41.19685632793227
        ]
      }
    }
  ]
}